{"type": "FeatureCollection", "features": [ {"type": "Feature", "properties": {"norad_id": 66584, "name": "STARLINK-35939", "group": "last-30-days", "lat": -17.667573813681134, "lon": 45.83165483244758, "alt_km": 399.45187722219634, "timestamp": "2025-12-22T04:03:37.885424+00:00", "meta": {"OBJECT_NAME": "STARLINK-35939", "OBJECT_ID": "2025-268AD", "EPOCH": "2025-12-21T20:00:01.999008", "MEAN_MOTION": 15.56473625, "ECCENTRICITY": 0.0001515, "INCLINATION": 43.0007, "RA_OF_ASC_NODE": 67.8007, "ARG_OF_PERICENTER": 266.2751, "MEAN_ANOMALY": 343.3768, "EPHEMERIS_TYPE": 0, "CLASSIFICATION_TYPE": "U", "NORAD_CAT_ID": 66584, "ELEMENT_SET_NO": 999, "REV_AT_EPOCH": 608, "BSTAR": -0.001978, "MEAN_MOTION_DOT": -0.00141668, "MEAN_MOTION_DDOT": 0}, "tle": {"line1": "1 66584U 25268AD  25355.83335647 -.00141668  00000+0 -19780-2 0  9995", "line2": "2 66584  43.0007  67.8007 0001515 266.2751 343.3768 15.56473625  6086"}}, "geometry": {"type": "Point", "coordinates": [45.83165483244758, -17.667573813681134]}}, {"type": "Feature", "properties": {"norad_id": 66585, "name": "STARLINK-35963", "group": "last-30-days", "lat": -19.73746800979789, "lon": 43.180060441159966, "alt_km": 409.83984577035335, "timestamp": "2025-12-22T04:03:37.885434+00:00", "meta": {"OBJECT_NAME": "STARLINK-35963", "OBJECT_ID": "2025-268AE", "EPOCH": "2025-12-21T20:00:01.999008", "MEAN_MOTION": 15.54367452, "ECCENTRICITY": 0.0001049, "INCLINATION": 43.0006, "RA_OF_ASC_NODE": 67.7989, "ARG_OF_PERICENTER": 267.3727, "MEAN_ANOMALY": 342.4562, "EPHEMERIS_TYPE": 0, "CLASSIFICATION_TYPE": "U", "NORAD_CAT_ID": 66585, "ELEMENT_SET_NO": 999, "REV_AT_EPOCH": 608, "BSTAR": -0.035069, "MEAN_MOTION_DOT": -0.02097684, "MEAN_MOTION_DDOT": 0}, "tle": {"line1": "1 66585U 25268AE  25355.83335647 -.02097684  00000+0 -35069-1 0  9993", "line2": "2 66585  43.0006  67.7989 0001049 267.3727 342.4562 15.54367452  6081"}}, "geometry": {"type": "Point", "coordinates": [43.180060441159966, -19.73746800979789]}}, {"type": "Feature", "properties": {"norad_id": 66586, "name": "TJS-21", "group": "last-30-days", "lat": -61.764982286039476, "lon": 51.16069359891022, "alt_km": 2157.2607574105414, "timestamp": "2025-12-22T04:03:37.885447+00:00", "meta": {"OBJECT_NAME": "TJS-21", "OBJECT_ID": "2025-269A", "EPOCH": "2025-12-18T16:58:10.473888", "MEAN_MOTION": 2.00580748, "ECCENTRICITY": 0.6806869, "INCLINATION": 63.2733, "RA_OF_ASC_NODE": 161.7218, "ARG_OF_PERICENTER": 269.7428, "MEAN_ANOMALY": 18.6663, "EPHEMERIS_TYPE": 0, "CLASSIFICATION_TYPE": "U", "NORAD_CAT_ID": 66586, "ELEMENT_SET_NO": 999, "REV_AT_EPOCH": 55, "BSTAR": -0.059507049, "MEAN_MOTION_DOT": 1.084e-05, "MEAN_MOTION_DDOT": 0}, "tle": {"line1": "1 66586U 25269A   25352.70706567  .00001084  00000+0 -59507-1 0  9990", "line2": "2 66586  63.2733 161.7218 6806869 269.7428  18.6663  2.00580748   558"}}, "geometry": {"type": "Point", "coordinates": [51.16069359891022, -61.764982286039476]}}, {"type": "Feature", "properties": {"norad_id": 66588, "name": "STARLINK-36076", "group": "last-30-days", "lat": 3.358945358906939, "lon": -45.16619620340955, "alt_km": 442.0140822307867, "timestamp": "2025-12-22T04:03:37.885464+00:00", "meta": {"OBJECT_NAME": "STARLINK-36076", "OBJECT_ID": "2025-270A", "EPOCH": "2025-12-21T19:31:30.258624", "MEAN_MOTION": 15.40748824, "ECCENTRICITY": 0.0005407, "INCLINATION": 42.999, "RA_OF_ASC_NODE": 140.4952, "ARG_OF_PERICENTER": 245.1466, "MEAN_ANOMALY": 114.8829, "EPHEMERIS_TYPE": 0, "CLASSIFICATION_TYPE": "U", "NORAD_CAT_ID": 66588, "ELEMENT_SET_NO": 999, "REV_AT_EPOCH": 574, "BSTAR": 0.0011456, "MEAN_MOTION_DOT": 0.00047951, "MEAN_MOTION_DDOT": 0}, "tle": {"line1": "1 66588U 25270A   25355.81354466  .00047951  00000+0  11456-2 0  9990", "line2": "2 66588  42.9990 140.4952 0005407 245.1466 114.8829 15.40748824  5749"}}, "geometry": {"type": "Point", "coordinates": [-45.16619620340955, 3.358945358906939]}}, {"type": "Feature", "properties": {"norad_id": 66589, "name": "STARLINK-35447", "group": "last-30-days", "lat": -42.818919331440824, "lon": 54.29217205354224, "alt_km": 446.22052489792986, "timestamp": "2025-12-22T04:03:37.885475+00:00", "meta": {"OBJECT_NAME": "STARLINK-35447", "OBJECT_ID": "2025-270B", "EPOCH": "2025-12-21T19:05:43.044576", "MEAN_MOTION": 15.40715065, "ECCENTRICITY": 0.0001618, "INCLINATION": 43.0008, "RA_OF_ASC_NODE": 140.357, "ARG_OF_PERICENTER": 273.519, "MEAN_ANOMALY": 86.5481, "EPHEMERIS_TYPE": 0, "CLASSIFICATION_TYPE": "U", "NORAD_CAT_ID": 66589, "ELEMENT_SET_NO": 999, "REV_AT_EPOCH": 585, "BSTAR": 0.00046734, "MEAN_MOTION_DOT": 0.00019277, "MEAN_MOTION_DDOT": 0}, "tle": {"line1": "1 66589U 25270B   25355.79563709  .00019277  00000+0  46734-3 0  9998", "line2": "2 66589  43.0008 140.3570 0001618 273.5190  86.5481 15.40715065  5858"}}, "geometry": {"type": "Point", "coordinates": [54.29217205354224, -42.818919331440824]}}, {"type": "Feature", "properties": {"norad_id": 66590, "name": "STARLINK-35429", "group": "last-30-days", "lat": 0.9777208222608423, "lon": 139.04570478468278, "alt_km": 443.48691274000885, "timestamp": "2025-12-22T04:03:37.885485+00:00", "meta": {"OBJECT_NAME": "STARLINK-35429", "OBJECT_ID": "2025-270C", "EPOCH": "2025-12-21T20:00:01.999008", "MEAN_MOTION": 15.40653182, "ECCENTRICITY": 0.0001546, "INCLINATION": 43.0005, "RA_OF_ASC_NODE": 139.932, "ARG_OF_PERICENTER": 278.5196, "MEAN_ANOMALY": 18.091, "EPHEMERIS_TYPE": 0, "CLASSIFICATION_TYPE": "U", "NORAD_CAT_ID": 66590, "ELEMENT_SET_NO": 999, "REV_AT_EPOCH": 596, "BSTAR": 0.0021204, "MEAN_MOTION_DOT": 0.00089175, "MEAN_MOTION_DDOT": 0}, "tle": {"line1": "1 66590U 25270C   25355.83335647  .00089175  00000+0  21204-2 0  9991", "line2": "2 66590  43.0005 139.9320 0001546 278.5196  18.0910 15.40653182  5965"}}, "geometry": {"type": "Point", "coordinates": [139.04570478468278, 0.9777208222608423]}}, {"type": "Feature", "properties": {"norad_id": 66591, "name": "STARLINK-36058", "group": "last-30-days", "lat": 42.96155804716792, "lon": -134.2646965497505, "alt_km": 437.9579449549756, "timestamp": "2025-12-22T04:03:37.885496+00:00", "meta": {"OBJECT_NAME": "STARLINK-36058", "OBJECT_ID": "2025-270D", "EPOCH": "2025-12-21T20:00:01.999008", "MEAN_MOTION": 15.40673624, "ECCENTRICITY": 0.0001617, "INCLINATION": 43.0001, "RA_OF_ASC_NODE": 139.7197, "ARG_OF_PERICENTER": 308.2056, "MEAN_ANOMALY": 75.3707, "EPHEMERIS_TYPE": 0, "CLASSIFICATION_TYPE": "U", "NORAD_CAT_ID": 66591, "ELEMENT_SET_NO": 999, "REV_AT_EPOCH": 586, "BSTAR": 0.0019932, "MEAN_MOTION_DOT": 0.00083803, "MEAN_MOTION_DDOT": 0}, "tle": {"line1": "1 66591U 25270D   25355.83335647  .00083803  00000+0  19932-2 0  9999", "line2": "2 66591  43.0001 139.7197 0001617 308.2056  75.3707 15.40673624  5869"}}, "geometry": {"type": "Point", "coordinates": [-134.2646965497505, 42.96155804716792]}}, {"type": "Feature", "properties": {"norad_id": 66592, "name": "STARLINK-36066", "group": "last-30-days", "lat": -28.707113129885137, "lon": -5.68288106184438, "alt_km": 443.3854686399609, "timestamp": "2025-12-22T04:03:37.885506+00:00", "meta": {"OBJECT_NAME": "STARLINK-36066", "OBJECT_ID": "2025-270E", "EPOCH": "2025-12-21T19:18:36.252000", "MEAN_MOTION": 15.4072543, "ECCENTRICITY": 0.0005107, "INCLINATION": 43.0002, "RA_OF_ASC_NODE": 140.4255, "ARG_OF_PERICENTER": 247.907, "MEAN_ANOMALY": 112.1244, "EPHEMERIS_TYPE": 0, "CLASSIFICATION_TYPE": "U", "NORAD_CAT_ID": 66592, "ELEMENT_SET_NO": 999, "REV_AT_EPOCH": 564, "BSTAR": 0.00070721, "MEAN_MOTION_DOT": 0.00029387, "MEAN_MOTION_DDOT": 0}, "tle": {"line1": "1 66592U 25270E   25355.80458625  .00029387  00000+0  70721-3 0  9990", "line2": "2 66592  43.0002 140.4255 0005107 247.9070 112.1244 15.40725430  5643"}}, "geometry": {"type": "Point", "coordinates": [-5.68288106184438, -28.707113129885137]}}, {"type": "Feature", "properties": {"norad_id": 66593, "name": "STARLINK-36031", "group": "last-30-days", "lat": -30.556104508383243, "lon": 98.80465866814892, "alt_km": 444.6548150340068, "timestamp": "2025-12-22T04:03:37.885516+00:00", "meta": {"OBJECT_NAME": "STARLINK-36031", "OBJECT_ID": "2025-270F", "EPOCH": "2025-12-21T17:22:41.132352", "MEAN_MOTION": 15.40731859, "ECCENTRICITY": 0.0003189, "INCLINATION": 43.0018, "RA_OF_ASC_NODE": 140.679, "ARG_OF_PERICENTER": 281.8549, "MEAN_ANOMALY": 78.195, "EPHEMERIS_TYPE": 0, "CLASSIFICATION_TYPE": "U", "NORAD_CAT_ID": 66593, "ELEMENT_SET_NO": 999, "REV_AT_EPOCH": 573, "BSTAR": 0.00092206, "MEAN_MOTION_DOT": 0.00038452, "MEAN_MOTION_DDOT": 0}, "tle": {"line1": "1 66593U 25270F   25355.72408718  .00038452  00000+0  92206-3 0  9995", "line2": "2 66593  43.0018 140.6790 0003189 281.8549  78.1950 15.40731859  5730"}}, "geometry": {"type": "Point", "coordinates": [98.80465866814892, -30.556104508383243]}}, {"type": "Feature", "properties": {"norad_id": 66594, "name": "STARLINK-36032", "group": "last-30-days", "lat": 32.090904873771905, "lon": -179.83130445168234, "alt_km": 439.5894990944198, "timestamp": "2025-12-22T04:03:37.885527+00:00", "meta": {"OBJECT_NAME": "STARLINK-36032", "OBJECT_ID": "2025-270G", "EPOCH": "2025-12-21T20:00:01.999008", "MEAN_MOTION": 15.40674347, "ECCENTRICITY": 0.0001453, "INCLINATION": 43, "RA_OF_ASC_NODE": 139.8104, "ARG_OF_PERICENTER": 267.2083, "MEAN_ANOMALY": 79.1044, "EPHEMERIS_TYPE": 0, "CLASSIFICATION_TYPE": "U", "NORAD_CAT_ID": 66594, "ELEMENT_SET_NO": 999, "REV_AT_EPOCH": 559, "BSTAR": 0.0023935, "MEAN_MOTION_DOT": 0.00100926, "MEAN_MOTION_DDOT": 0}, "tle": {"line1": "1 66594U 25270G   25355.83335647  .00100926  00000+0  23935-2 0  9996", "line2": "2 66594  43.0000 139.8104 0001453 267.2083  79.1044 15.40674347  5591"}}, "geometry": {"type": "Point", "coordinates": [-179.83130445168234, 32.090904873771905]}}]}